MEAN_MOTION;ECCENTRICITY;INCLINATION;RA_OF_ASC_NODE;ARG_OF_PERICENTER;MEAN_ANOMALY;BSTAR;MEAN_MOTION_DOT;MEAN_MOTION_DDOT;TYPE
14.90280034;0.0177986;86.3956;89.887;280.4644;77.657;5.2438E-5;7.23E-6;0;Iridium
14.90280711;0.0177974;86.3956;89.6105;278.2795;79.8285;5.0655E-5;6.99E-6;0;Iridium
14.90280711;0.0177974;86.3956;89.6105;278.2795;79.8285;5.0655E-5;6.99E-6;0;Iridium
14.90281421;0.0177961;86.3955;89.4261;276.8231;81.2776;5.1832E-5;7.15E-6;0;Iridium
14.90282843;0.0177955;86.3956;89.1496;274.6383;83.4539;5.7257E-5;7.86E-6;0;Iridium
14.90283163;0.017795;86.3955;88.9652;273.1823;84.9058;5.3487E-5;7.36E-6;0;Iridium
14.9028379;0.0177951;86.3956;88.7501;271.4812;86.6038;5.2625E-5;7.25E-6;0;Iridium
14.90284537;0.0177953;86.3955;88.5043;269.539;88.5445;5.1585E-5;7.11E-6;0;Iridium
14.9028509;0.0177954;86.3956;88.2893;267.8375;90.2466;5.0281E-5;6.94E-6;0;Iridium
14.9028509;0.0177954;86.3956;88.2893;267.8375;90.2466;5.0281E-5;6.94E-6;0;Iridium
14.9028509;0.0177954;86.3956;88.2893;267.8375;90.2466;5.0281E-5;6.94E-6;0;Iridium
14.90286511;0.0177965;86.3956;87.6442;262.7336;95.3632;4.4537E-5;6.19E-6;0;Iridium
14.90286664;0.0177967;86.3957;87.5827;262.2448;95.8541;4.4022E-5;6.12E-6;0;Iridium
14.90287255;0.0177977;86.3957;87.3677;260.5441;97.563;4.4131E-5;6.14E-6;0;Iridium
14.90287653;0.017799;86.3957;87.1526;258.8466;99.2705;4.1736E-5;5.83E-6;0;Iridium
14.90288365;0.0178012;86.3958;86.8761;256.663;101.4696;4.1726E-5;5.83E-6;0;Iridium
14.90288365;0.0178012;86.3958;86.8761;256.663;101.4696;4.1726E-5;5.83E-6;0;Iridium
14.90288962;0.0178025;86.3958;86.6918;255.2133;102.9312;4.2823E-5;5.97E-6;0;Iridium
14.9028933;0.0178069;86.3958;86.2311;251.5702;106.6095;3.1798E-5;4.53E-6;0;Iridium
14.9028985;0.01781;86.3959;85.9545;249.3917;108.8129;3.0595E-5;4.37E-6;0;Iridium
14.90289906;0.0178102;86.3959;85.9237;249.1499;109.0577;3.0568E-5;4.37E-6;0;Iridium
14.90290101;0.0178109;86.3959;85.8009;248.1809;110.0389;3.0195E-5;4.32E-6;0;Iridium
14.90291008;0.0178146;86.3959;85.4937;245.7543;112.4983;3.4898E-5;4.94E-6;0;Iridium
14.90291357;0.0178168;86.3959;85.3094;244.2998;113.9741;3.5611E-5;5.03E-6;0;Iridium
14.9029187;0.0178206;86.396;85.0329;242.1159;116.1921;3.6539E-5;5.15E-6;0;Iridium
14.90292099;0.0178234;86.396;84.8486;240.6606;117.6717;3.5316E-5;5.0E-6;0;Iridium
14.90292687;0.0178273;86.3961;84.6029;238.7218;119.6446;3.7966E-5;5.35E-6;0;Iridium
14.90292725;0.0178277;86.3961;84.5722;238.4793;119.8915;3.755E-5;5.29E-6;0;Iridium
14.90292972;0.0178304;86.3961;84.3879;237.025;121.373;3.6311E-5;5.13E-6;0;Iridium
14.90293649;0.0178351;86.3961;84.1114;234.845;123.5958;3.7964E-5;5.35E-6;0;Iridium
14.90293849;0.0178377;86.3961;83.9578;233.6337;124.832;3.6462E-5;5.15E-6;0;Iridium
14.90294369;0.0178428;86.3962;83.6813;231.4536;127.0587;3.5419E-5;5.02E-6;0;Iridium
14.90294338;0.0178434;86.3962;83.6506;231.2111;127.3065;3.434E-5;4.88E-6;0;Iridium
14.90294552;0.0178463;86.3962;83.497;229.9996;128.5451;3.3006E-5;4.7E-6;0;Iridium
14.90295052;0.017852;86.3962;83.2206;227.8204;130.7749;3.2677E-5;4.66E-6;0;Iridium
14.90295099;0.0178526;86.3962;83.1899;227.578;131.0231;3.2541E-5;4.64E-6;0;Iridium
14.90295347;0.0178557;86.3963;83.0363;226.3668;132.2635;3.1985E-5;4.57E-6;0;Iridium
14.90296041;0.0178624;86.3963;82.7291;223.9468;134.744;3.3886E-5;4.82E-6;0;Iridium
14.9029624;0.0178658;86.3963;82.5756;222.7373;135.9848;3.3036E-5;4.71E-6;0;Iridium
14.9029668;0.0178719;86.3964;82.3299;220.8022;137.9711;3.3119E-5;4.73E-6;0;Iridium
14.90297092;0.017877;86.3964;82.1149;219.1086;139.711;3.3022E-5;4.72E-6;0;Iridium
14.90297617;0.0178838;86.3965;81.8385;216.9337;141.9469;3.3146E-5;4.74E-6;0;Iridium
14.90297617;0.0178838;86.3965;81.8385;216.9337;141.9469;3.3146E-5;4.74E-6;0;Iridium
14.90297751;0.0178882;86.3965;81.6542;215.484;143.4384;2.9715E-5;4.29E-6;0;Iridium
14.90298667;0.017895;86.3966;81.3778;213.3109;145.6758;3.4076E-5;4.86E-6;0;Iridium
14.9029904;0.0178991;86.3967;81.1935;211.8628;147.1676;3.3699E-5;4.81E-6;0;Iridium
14.90299723;0.0179063;86.3968;80.9171;209.6901;149.4073;3.4489E-5;4.92E-6;0;Iridium
14.903003;0.0179109;86.3968;80.7329;208.2424;150.9005;3.5954E-5;5.12E-6;0;Iridium
14.90300965;0.0179177;86.397;80.4872;206.3125;152.892;3.7548E-5;5.33E-6;0;Iridium
14.90301022;0.0179185;86.397;80.4565;206.071;153.1413;3.7392E-5;5.31E-6;0;Iridium
14.90301349;0.0179239;86.397;80.2722;204.6229;154.6365;3.6204E-5;5.16E-6;0;Iridium
14.90301979;0.0179313;86.3972;80.0266;202.6947;156.6284;3.8633E-5;5.48E-6;0;Iridium
14.90302038;0.0179318;86.3972;79.9959;202.4536;156.8776;3.8606E-5;5.48E-6;0;Iridium
14.90302321;0.0179368;86.3972;79.8423;201.2485;158.123;3.8103E-5;5.41E-6;0;Iridium
14.9030241;0.0179387;86.3973;79.7809;200.7662;158.6215;3.7683E-5;5.36E-6;0;Iridium
14.90303279;0.0179508;86.3974;79.3818;197.6345;161.8603;3.8017E-5;5.4E-6;0;Iridium
14.90303398;0.0179528;86.3974;79.3204;197.1529;162.3585;3.7551E-5;5.34E-6;0;Iridium
14.90303852;0.0179585;86.3975;79.1361;195.7093;163.8521;3.8018E-5;5.41E-6;0;Iridium
14.90304451;0.0179647;86.3975;78.9212;194.0243;165.5962;3.8666E-5;5.5E-6;0;Iridium
14.90305398;0.017972;86.3976;78.6755;192.1016;167.5869;4.2563E-5;6.01E-6;0;Iridium
14.90305398;0.017972;86.3976;78.6755;192.1016;167.5869;4.2563E-5;6.01E-6;0;Iridium
14.90306109;0.0179782;86.3976;78.4606;190.4177;169.3308;4.3773E-5;6.18E-6;0;Iridium
14.90307189;0.017985;86.3977;78.215;188.4958;171.3217;4.8244E-5;6.77E-6;0;Iridium
14.90307189;0.017985;86.3977;78.215;188.4958;171.3217;4.8244E-5;6.77E-6;0;Iridium
14.9030793;0.0179913;86.3977;78.0001;186.8134;173.0647;4.9005E-5;6.87E-6;0;Iridium
14.90308766;0.0179992;86.3978;77.7544;184.8934;175.0544;5.0774E-5;7.11E-6;0;Iridium
14.90309397;0.0180059;86.3979;77.5396;183.2123;176.7966;5.1079E-5;7.16E-6;0;Iridium
14.90309968;0.0180134;86.398;77.3247;181.534;178.5361;5.1279E-5;7.19E-6;0;Iridium
14.90310806;0.0180216;86.3981;77.0791;179.6149;180.5253;5.2904E-5;7.4E-6;0;Iridium
14.90311655;0.0180291;86.3981;76.8642;177.9373;182.2642;5.5477E-5;7.75E-6;0;Iridium
14.90312091;0.018038;86.3982;76.6187;176.0193;184.2523;5.1866E-5;7.27E-6;0;Iridium
14.90312452;0.0180454;86.3983;76.4039;174.3445;185.9882;4.7452E-5;6.69E-6;0;Iridium
14.90312452;0.0180454;86.3983;76.4039;174.3445;185.9882;4.7452E-5;6.69E-6;0;Iridium
14.90313236;0.0180526;86.3984;76.1583;172.4268;187.9756;4.7719E-5;6.73E-6;0;Iridium
14.90313783;0.0180594;86.3985;75.9434;170.7527;189.7104;4.5785E-5;6.48E-6;0;Iridium
14.90313783;0.0180594;86.3985;75.9434;170.7527;189.7104;4.5785E-5;6.48E-6;0;Iridium
14.90314359;0.0180655;86.3986;75.7286;169.0767;191.4469;4.3667E-5;6.2E-6;0;Iridium
14.90314757;0.0180739;86.3987;75.483;167.1642;193.4281;3.8487E-5;5.52E-6;0;Iridium
14.90314757;0.0180739;86.3987;75.483;167.1642;193.4281;3.8487E-5;5.52E-6;0;Iridium
14.9031531;0.0180814;86.3987;75.2682;165.4886;195.1635;3.7107E-5;5.34E-6;0;Iridium
14.90316583;0.0180955;86.3989;74.8078;161.9047;198.8737;3.7889E-5;5.44E-6;0;Iridium
14.90317126;0.0181032;86.3991;74.5623;159.9959;200.8488;3.823E-5;5.49E-6;0;Iridium
14.90317965;0.018117;86.3992;74.1326;156.6566;204.3022;3.8467E-5;5.53E-6;0;Iridium
14.90318504;0.0181251;86.3993;73.8871;154.748;206.2748;3.8815E-5;5.58E-6;0;Iridium
14.90318958;0.0181322;86.3994;73.6723;153.0803;207.9977;3.9236E-5;5.64E-6;0;Iridium
14.90318958;0.0181322;86.3994;73.6723;153.0803;207.9977;3.9236E-5;5.64E-6;0;Iridium
14.90319444;0.0181398;86.3994;73.4269;151.1725;209.9676;3.8372E-5;5.52E-6;0;Iridium
14.90320069;0.0181478;86.3995;73.1506;149.0283;212.1801;3.8185E-5;5.5E-6;0;Iridium
14.9032013;0.0181487;86.3995;73.1199;148.79;212.426;3.8074E-5;5.49E-6;0;Iridium
14.90320437;0.018153;86.3996;72.9665;147.5994;213.6537;3.7091E-5;5.36E-6;0;Iridium
14.90321095;0.0181604;86.3996;72.6903;145.4563;215.8626;3.7574E-5;5.43E-6;0;Iridium
14.90321483;0.0181658;86.3997;72.5062;144.0286;217.3332;3.687E-5;5.33E-6;0;Iridium
14.90321856;0.0181708;86.3998;72.322;142.6024;218.8015;3.722E-5;5.38E-6;0;Iridium
14.90321856;0.0181708;86.3998;72.322;142.6024;218.8015;3.722E-5;5.38E-6;0;Iridium
14.90322486;0.0181779;86.3999;72.0459;140.4614;221.0041;3.844E-5;5.55E-6;0;Iridium
14.90323356;0.0181826;86.4;71.8618;139.0371;222.4683;4.52E-5;6.45E-6;0;Iridium
14.903234;0.0181875;86.4;71.6777;137.6104;223.9341;4.2575E-5;6.1E-6;0;Iridium
14.90324073;0.0181957;86.4001;71.4016;135.4759;226.1257;4.4887E-5;6.41E-6;0;Iridium
14.90324073;0.0181957;86.4001;71.4016;135.4759;226.1257;4.4887E-5;6.41E-6;0;Iridium
14.90324744;0.0182025;86.4002;71.1562;133.5771;228.0734;4.6593E-5;6.64E-6;0;Iridium
14.90324961;0.0182085;86.4002;70.9415;131.9179;229.774;4.3855E-5;6.28E-6;0;Iridium
14.90324961;0.0182085;86.4002;70.9415;131.9179;229.774;4.3855E-5;6.28E-6;0;Iridium
14.90325648;0.0182135;86.4003;70.6962;130.018;231.7194;4.4472E-5;6.36E-6;0;Iridium
14.90326265;0.0182186;86.4003;70.4507;128.1199;233.6612;4.4179E-5;6.33E-6;0;Iridium
14.90326265;0.0182186;86.4003;70.4507;128.1199;233.6612;4.4179E-5;6.33E-6;0;Iridium
14.90326961;0.0182226;86.4003;70.236;126.4576;235.3604;4.4899E-5;6.42E-6;0;Iridium
14.90327639;0.0182275;86.4004;69.9905;124.561;237.2972;4.4819E-5;6.42E-6;0;Iridium
14.90327639;0.0182275;86.4004;69.9905;124.561;237.2972;4.4819E-5;6.42E-6;0;Iridium
14.90328141;0.0182319;86.4005;69.7758;122.9003;238.9915;4.3536E-5;6.25E-6;0;Iridium
14.90329179;0.018239;86.4006;69.3771;119.8193;242.1307;4.4138E-5;6.33E-6;0;Iridium
14.90329331;0.01824;86.4007;69.3157;119.3447;242.6138;4.4222E-5;6.34E-6;0;Iridium
14.90329788;0.018243;86.4008;69.1317;117.9252;244.058;4.5514E-5;6.51E-6;0;Iridium
14.903304;0.0182474;86.4009;68.8863;116.0313;245.983;4.6636E-5;6.67E-6;0;Iridium
14.90331403;0.0182514;86.401;68.6103;113.9002;248.1466;5.2076E-5;7.39E-6;0;Iridium
14.90331403;0.0182514;86.401;68.6103;113.9002;248.1466;5.2076E-5;7.39E-6;0;Iridium
14.90331931;0.0182541;86.401;68.4262;112.4804;249.5865;5.3051E-5;7.52E-6;0;Iridium
14.90333265;0.0182566;86.4011;68.2115;110.8252;251.2635;6.1708E-5;8.68E-6;0;Iridium
14.90333629;0.0182602;86.4012;67.9662;108.932;253.1798;5.7555E-5;8.13E-6;0;Iridium
14.90334241;0.0182622;86.4013;67.7515;107.276;254.8541;5.6594E-5;8.0E-6;0;Iridium
